STARLINK-1679           
1 46557C 20070AB  26123.41923611  .00069363  00000+0  57190-3 0  1237
2 46557  53.0416 215.8384 0007385 357.1863  83.1288 15.69611247    18
STARLINK-1680           
1 46558C 20070AC  26123.35395833  .01561600  00000+0  10686-2 0  1230
2 46558  53.0242 191.2224 0010519 351.0595  77.5844 16.14957289    19
STARLINK-1714           
1 46562C 20070AG  26123.26993056  .01015800  00000+0  11188-1 0  1239
2 46562  53.0401 211.7350 0008060 347.6615 136.0739 15.61935007    10
STARLINK-1730           
1 46563C 20070AH  26123.39076389  .00055879  00000+0  86926-3 0  1238
2 46563  53.0270 220.3820 0004544 337.0719  65.4734 15.53261439    16
STARLINK-1733           
1 46564C 20070AJ  26123.42270833  .00540050  00000+0  10086-2 0  1236
2 46564  53.0310 190.8423 0011977   1.0179 218.1023 15.99843276    11
STARLINK-1735           
1 46565C 20070AK  26123.39909722  .00089397  00000+0  62473-3 0  1239
2 46565  53.0380 209.2407 0010618 353.4862 105.8606 15.73472322    11
STARLINK-1741           
1 46567C 20070AM  26123.38868056  .00116120  00000+0  73256-3 0  1230
2 46567  53.0386 207.5011 0009469 355.0555 138.9834 15.75827689    12
STARLINK-1531           
1 46572C 20070AS  26123.39840278  .00141380  00000+0  88136-3 0  1232
2 46572  53.0509 229.2727 0007685  27.2182 155.9893 15.76108955    15
STARLINK-1677           
1 46576C 20070AW  26123.41576389  .00158850  00000+0  82002-3 0  1234
2 46576  53.0304 212.6198 0009172 345.4520  90.3610 15.80272430    18
STARLINK-1728           
1 46582C 20070BC  26123.36576389  .00062181  00000+0  61421-3 0  1238
2 46582  53.0364 219.4358 0009956 345.0808 132.2155 15.65145737    11
STARLINK-1736           
1 46585C 20070BF  26123.37131944  .00159420  00000+0  77304-3 0  1236
2 46585  53.0349 204.1368 0009691 352.5847  76.3148 15.81616565    11
STARLINK-1746           
1 46588C 20070BJ  26123.37340278  .00499570  00000+0  10086-2 0  1237
2 46588  53.0295 199.3272 0012902 351.6747  75.1250 15.98475795    18
STARLINK-1716           
1 46672C 20073C   26123.38659722  .00212610  00000+0  12613-2 0  1238
2 46672  53.0396 290.4651 0004264 201.2705  49.1639 15.77222868    14
STARLINK-1718           
1 46674C 20073E   26123.36229167  .00124640  00000+0  11493-2 0  1234
2 46674  53.0447 321.0052 0004657 154.3328 265.7361 15.66878682    11
STARLINK-1781           
1 46685C 20073R   26123.35604167  .00090480  00000+0  83809-3 0  1237
2 46685  53.0468 336.4803 0004637 151.0517 157.1018 15.66784159    10
STARLINK-1784           
1 46687C 20073T   26123.34770833  .00175720  00000+0  12325-2 0  1237
2 46687  53.0390 277.3119 0000220 160.3321 296.2072 15.73427019    11
STARLINK-1788           
1 46689C 20073V   26123.38173611  .00191980  00000+0  13075-2 0  1233
2 46689  53.0378 308.6913 0003247 225.0617 204.3263 15.74093872    17
STARLINK-1790           
1 46691C 20073X   26123.36993056  .00727870  00000+0  11683-2 0  1233
2 46691  53.0295 282.2691 0011674 302.7998 304.4772 16.02341274    17
STARLINK-1795           
1 46696C 20073AC  26123.34423611  .00261830  00000+0  12172-2 0  1234
2 46696  53.0356 268.9354 0007775 293.3953 318.8376 15.82494118    12
STARLINK-1797           
1 46698C 20073AE  26123.42270833  .00163620  00000+0  17079-2 0  1230
2 46698  53.0422 302.4714 0003719 258.1686  65.0674 15.63762573    12
STARLINK-1799           
1 46699C 20073AF  26122.33659722  .06147500  00000+0  15521-2 0  1222
2 46699  53.0244 281.6595 0015254 296.5827 306.5444 16.27773966    17
STARLINK-1801           
1 46701C 20073AH  26123.37479167  .00380890  00000+0  11494-2 0  1235
2 46701  53.0372 283.4922 0006948 320.8778  46.1671 15.91215685    11
STARLINK-1802           
1 46702C 20073AJ  26123.37687500  .00080628  00000+0  23577-2 0  1239
2 46702  53.1576 322.3044 0002547 207.6043 167.8290 15.34672170    16
STARLINK-1805           
1 46705C 20073AM  26123.37895833  .00119210  00000+0  12761-2 0  1235
2 46705  53.0463 338.2093 0003263 132.1534 255.6766 15.63146992    10
STARLINK-1807           
1 46706C 20073AN  26123.34284722  .00008876  00000+0  31744-3 0  1230
2 46706  53.0587 335.5264 0000244  94.8432 317.1364 15.28254836    11
STARLINK-1810           
1 46709C 20073AR  26123.37687500  .00124500  00000+0  16991-2 0  1236
2 46709  53.0442 328.8285 0001676 223.9415 151.8027 15.56797795    14
STARLINK-1815           
1 46713C 20073AV  26123.42756944  .00241360  00000+0  10796-2 0  1237
2 46713  53.0405 289.4887 0004639 250.3184 293.4751 15.83355060    19
STARLINK-1816           
1 46714C 20073AW  26123.37687500  .00547870  00000+0  11771-2 0  1232
2 46714  53.0308 282.8154 0009563 296.1751 157.1140 15.97419171    12
STARLINK-1817           
1 46715C 20073AX  26123.36576389  .00171920  00000+0  12556-2 0  1235
2 46715  53.0438 308.0502 0002078 110.4959 325.6853 15.72480663    17
STARLINK-1821           
1 46718C 20073BA  26123.33520833  .00109180  00000+0  22078-2 0  1237
2 46718  53.0464 327.5596 0001192  87.2364  55.6170 15.45814952    19
STARLINK-1826           
1 46723C 20073BF  26123.41229167  .00138680  00000+0  10751-2 0  1230
2 46723  53.0442 271.5212 0004549 350.4570 127.3376 15.71075649    13
STARLINK-1828           
1 46725C 20073BH  26123.42062500  .00188420  00000+0  19359-2 0  1239
2 46725  53.0500 330.3216 0005057 195.2591 157.9840 15.64143261    14
STARLINK-1830           
1 46727C 20073BK  26123.42618056  .00096826  00000+0  91629-3 0  1233
2 46727  53.0388 276.2723 0004604 253.2562 119.5312 15.66250625    14
STARLINK-1892           
1 46743C 20074E   26123.31576389  .00081109  00000+0  89921-3 0  1232
2 46743  53.0427  28.8807 0003877 168.5139 162.6799 15.62266554    11
STARLINK-1905           
1 46746C 20074H   26123.36159722  .00094116  00000+0  61420-3 0  1234
2 46746  53.0415  13.6499 0005724 143.3254 208.0537 15.75108977    15
STARLINK-1911           
1 46749C 20074L   26123.38729167  .00439290  00000+0  10990-2 0  1236
2 46749  53.0402   3.3746 0005970 202.5165 283.0506 15.94752740    10
STARLINK-1922           
1 46753C 20074Q   26123.36923611  .00127100  00000+0  76283-3 0  1231
2 46753  53.0437  13.2690 0006274 158.2111 201.8075 15.76989588    18
STARLINK-1928           
1 46758C 20074V   26123.31645833  .00123100  00000+0  64650-3 0  1239
2 46758  53.0424  13.3687 0007004 163.8202 348.8849 15.79942786    14
STARLINK-1835           
1 46782C 20074AV  26123.38729167  .00058920  00000+0  51276-3 0  1233
2 46782  53.0432   6.7733 0008572 152.2534 208.0134 15.68293902    10
STARLINK-1882           
1 46784C 20074AX  26123.32201389  .00099302  00000+0  67782-3 0  1238
2 46784  53.0480   5.4572 0000729 146.2355 280.1951 15.74096513    16
STARLINK-1893           
1 46786C 20074AZ  26123.38381944  .00088161  00000+0  10607-2 0  1236
2 46786  53.0463 359.9641 0006117 179.0123 166.7391 15.60130395    16
STARLINK-1931           
1 46790C 20074BD  26123.34909722  .00133630  00000+0  76019-3 0  1239
2 46790  53.0414  12.4988 0004417 168.9489 253.6393 15.78199971    17
STARLINK-1942           
1 46794C 20074BH  26123.37131944  .00043173  00000+0  58155-3 0  1232
2 46794  53.0428  30.9274 0006346 138.9734  99.3289 15.57165448    10
STARLINK-1944           
1 46796C 20074BK  26123.32409722  .00108190  00000+0  65928-3 0  1238
2 46796  53.0414   0.5196 0005509 151.9610 199.4867 15.76662196    18
STARLINK-1777           
1 47122C 20088A   26123.34284722  .00081497  00000+0  87842-3 0  1239
2 47122  53.0483  18.5606 0006421 126.1847 287.4344 15.62969790    16
STARLINK-1812           
1 47126C 20088E   26123.37340278  .00014742  00000+0  70241-3 0  1239
2 47126  53.0772  50.2958 0003291  71.6008 175.8456 15.18594444    14
STARLINK-1845           
1 47135C 20088P   26123.36298611  .00047433  00000+0  45367-3 0  1235
2 47135  53.0486  10.8634 0006164 122.1258 237.7011 15.65999944    11
STARLINK-1856           
1 47143C 20088X   26123.41020833  .00061135  00000+0  61976-3 0  1238
2 47143  53.0480   8.8593 0000966  70.6420  50.9372 15.64561502    16
STARLINK-1871           
1 47157C 20088AM  26123.40256944  .00002663  00000+0  82246-4 0  1231
2 47157  53.1599  41.9423 0001529 141.8976 106.7252 15.32984000    10
STARLINK-1873           
1 47158C 20088AN  26123.31784722  .00108250  00000+0  89776-3 0  1235
2 47158  53.0447   1.5510 0002065 322.6662 304.7845 15.69486451    13
STARLINK-1876           
1 47161C 20088AR  26123.33104167  .00114990  00000+0  72310-3 0  1234
2 47161  53.0478   1.7453 0005299 171.1095 181.1886 15.75947919    18
STARLINK-1888           
1 47171C 20088BB  26123.32618056  .00066852  00000+0  83795-3 0  1233
2 47171  53.0491  15.8830 0002847 123.2350 276.4791 15.59085491    10
STARLINK-1912           
1 47178C 20088BJ  26123.35881944  .00039393  00000+0  36383-3 0  1232
2 47178  53.0483  14.4210 0004002  47.7894 298.9230 15.66885035    10
STARLINK-1913           
1 47179C 20088BK  26123.25673611  .00008303  00000+0  26719-3 0  1231
2 47179  53.1610  53.3309 0001220  82.1028 299.5549 15.31674948    17
STARLINK-2017           
1 47351C 21005C   26123.36229167 -.00124500  00000+0 -40045-2 0  1235
2 47351  53.1583 119.4759 0001479  80.4305 352.7916 15.31756246    18
STARLINK-2034           
1 47352C 21005D   26123.34979167 -.00073673  00000+0 -23696-2 0  1233
2 47352  53.1570 158.6030 0001279  81.4223 334.4964 15.31732375    17
STARLINK-2045           
1 47353C 21005E   26123.40951389  .00023034  00000+0  74110-3 0  1239
2 47353  53.1587 106.2512 0001403  94.3312   2.9417 15.31673066    12
STARLINK-2046           
1 47354C 21005F   26123.32756944 -.00093783  00000+0 -30174-2 0  1232
2 47354  53.1589 129.9550 0001322  85.9702 195.7468 15.31731460    18
STARLINK-2047           
1 47355C 21005G   26123.32826389 -.00060428  00000+0 -19444-2 0  1231
2 47355  53.1593 116.9626 0001310  89.7758  32.7874 15.31713142    12
